NORAD_CAT_ID,OBJECT_NAME,OBJECT_TYPE,EPOCH,MEAN_MOTION,ECCENTRICITY,INCLINATION,RA_OF_ASC_NODE,ARG_OF_PERICENTER,MEAN_ANOMALY,BSTAR,MEAN_MOTION_DOT,MEAN_MOTION_DDOT,TLE_LINE0,TLE_LINE1,TLE_LINE2,SEMIMAJOR_AXIS,PERIOD,APOGEE,PERIGEE,DECAYED
53838.0,STARLINK-4773,PAYLOAD,2023-10-13 09:00:43,15.08852735,0.0001615,53.2161,277.1901,98.775,261.3425,0.00043778,6.689e-05,0.0,0 STARLINK-4773,1 53838U 22114W   23286.37549965  .00006689  00000-0  43778-3 0  9997,2 53838  53.2161 277.1901 0001615  98.7750 261.3425 15.08852735 59835,6917.841,95.437,540.824,538.589,0.0
53838.0,STARLINK-4773,PAYLOAD,2023-10-13 16:57:38,15.08848096,0.0001841,53.2166,275.7027,101.752,258.3679,0.00031856,4.787e-05,0.0,0 STARLINK-4773,1 53838U 22114W   23286.70670069  .00004787  00000-0  31856-3 0  9995,2 53838  53.2166 275.7027 0001841 101.7520 258.3679 15.08848096 59881,6917.856,95.437,540.994,538.447,0.0
53838.0,STARLINK-4773,PAYLOAD,2023-10-14 08:51:29,15.08859243,0.0002128,53.2171,272.7277,110.9813,249.1407,0.00030582,4.585e-05,0.0,0 STARLINK-4773,1 53838U 22114W   23287.36909202  .00004585  00000-0  30582-3 0  9993,2 53838  53.2171 272.7277 0002128 110.9813 249.1407 15.08859243 60523,6917.822,95.436,541.159,538.214,0.0
53838.0,STARLINK-4773,PAYLOAD,2023-10-15 05:31:31,15.08827268,0.0001332,53.2173,268.8683,93.5254,266.5891,-0.00014065,-2.525e-05,0.0,0 STARLINK-4773,1 53838U 22114W   23288.23022894 -.00002525  00000-0 -14065-3 0  9995,2 53838  53.2173 268.8683 0001332  93.5254 266.5891 15.08827268 60110,6917.919,95.438,540.706,538.863,0.0
53838.0,STARLINK-4773,PAYLOAD,2023-10-16 05:22:20,15.0882482,0.0001577,53.2172,264.4066,91.1034,269.0139,0.00013311,1.83e-05,0.0,0 STARLINK-4773,1 53838U 22114W   23289.22384669  .00001830  00000-0  13311-3 0  9995,2 53838  53.2172 264.4066 0001577  91.1034 269.0139 15.08824820 60807,6917.927,95.439,540.883,538.701,0.0
53838.0,STARLINK-4773,PAYLOAD,2023-10-16 22:51:34,15.08850667,0.00014,53.2168,261.1355,91.4939,268.6213,0.00088246,0.00013788,0.0,0 STARLINK-4773,1 53838U 22114W   23289.95248644  .00013788  00000-0  88246-3 0  9991,2 53838  53.2168 261.1355 0001400  91.4939 268.6213 15.08850667 60917,6917.848,95.437,540.681,538.744,0.0
53838.0,STARLINK-4773,PAYLOAD,2023-10-17 08:23:52,15.08886345,0.0001449,53.2171,259.3512,92.2516,267.8642,0.0014937,0.00023594,0.0,0 STARLINK-4773,1 53838U 22114W   23290.34991592  .00023594  00000-0  14937-2 0  9994,2 53838  53.2171 259.3512 0001449  92.2516 267.8642 15.08886345 60434,6917.739,95.435,540.606,538.601,0.0
53838.0,STARLINK-4773,PAYLOAD,2023-10-18 01:53:06,15.08873622,0.0002426,53.2167,256.0757,135.9123,224.2063,0.0012087,0.00019019,0.0,0 STARLINK-4773,1 53838U 22114W   23291.07854564  .00019019  00000-0  12087-2 0  9993,2 53838  53.2167 256.0757 0002426 135.9123 224.2063 15.08873622 61089,6917.778,95.435,541.321,537.964,0.0
53838.0,STARLINK-4773,PAYLOAD,2023-10-18 05:03:52,15.08869909,0.0001141,53.2171,255.4851,90.2247,269.8875,0.0013225,0.00020839,0.0,0 STARLINK-4773,1 53838U 22114W   23291.21102659  .00020839  00000-0  13225-2 0  9997,2 53838  53.2171 255.4851 0001141  90.2247 269.8875 15.08869909 60566,6917.789,95.436,540.443,538.865,0.0
53838.0,STARLINK-4773,PAYLOAD,2023-10-18 20:57:44,15.08864689,0.0002555,53.2174,252.5121,81.3075,278.8206,0.0014409,0.00022734,0.0,0 STARLINK-4773,1 53838U 22114W   23291.87342726  .00022734  00000-0  14409-2 0  9991,2 53838  53.2174 252.5121 0002555  81.3075 278.8206 15.08864689 60666,6917.805,95.436,541.437,537.902,0.0
53838.0,STARLINK-4773,PAYLOAD,2023-10-19 04:54:39,15.08856538,0.0001369,53.2172,251.0256,84.333,275.7818,0.0015183,0.00023969,0.0,0 STARLINK-4773,1 53838U 22114W   23292.20462408  .00023969  00000-0  15183-2 0  9990,2 53838  53.2172 251.0256 0001369  84.3330 275.7818 15.08856538 60711,6917.83,95.437,540.642,538.748,0.0
53838.0,STARLINK-4773,PAYLOAD,2023-10-19 06:30:02,15.08860024,0.0001352,53.217,250.7282,82.0702,278.0443,0.0017315,0.00027391,0.0,0 STARLINK-4773,1 53838U 22114W   23292.27086326  .00027391  00000-0  17315-2 0  9990,2 53838  53.2170 250.7282 0001352  82.0702 278.0443 15.08860024 61260,6917.819,95.436,540.619,538.749,0.0
53838.0,STARLINK-4773,PAYLOAD,2023-10-19 20:48:31,15.0885146,0.0001551,53.2161,248.0514,80.935,279.1818,0.001256,0.00019764,0.0,0 STARLINK-4773,1 53838U 22114W   23292.86702617  .00019764  00000-0  12560-2 0  9995,2 53838  53.2161 248.0514 0001551  80.9350 279.1818 15.08851460 60817,6917.845,95.437,540.783,538.637,0.0
53838.0,STARLINK-4773,PAYLOAD,2023-10-20 04:45:26,15.08859586,0.0001253,53.2163,246.5644,107.3949,252.718,0.00085623,0.00013372,0.0,0 STARLINK-4773,1 53838U 22114W   23293.19822002  .00013372  00000-0  85623-3 0  9993,2 53838  53.2163 246.5644 0001253 107.3949 252.7180 15.08859586 61405,6917.821,95.436,540.552,538.819,0.0
53838.0,STARLINK-4773,PAYLOAD,2023-10-20 20:39:18,15.08839477,0.0001489,53.2167,243.5926,92.918,267.1982,0.00050596,7.773e-05,0.0,0 STARLINK-4773,1 53838U 22114W   23293.86062945  .00007773  00000-0  50596-3 0  9998,2 53838  53.2167 243.5926 0001489  92.9180 267.1982 15.08839477 60963,6917.882,95.438,540.777,538.717,0.0
53838.0,STARLINK-4773,PAYLOAD,2023-10-21 14:08:33,15.08842423,0.0001558,53.2169,240.3192,96.7419,263.375,0.00072832,0.00011323,0.0,0 STARLINK-4773,1 53838U 22114W   23294.58927316  .00011323  00000-0  72832-3 0  9993,2 53838  53.2169 240.3192 0001558  96.7419 263.3750 15.08842423 61618,6917.873,95.437,540.816,538.66,0.0
53838.0,STARLINK-4773,PAYLOAD,2023-10-21 20:30:05,15.08852493,0.0001566,53.2171,239.1299,91.4172,268.7,0.00081743,0.0001275,0.0,0 STARLINK-4773,1 53838U 22114W   23294.85423086  .00012750  00000-0  81743-3 0  9994,2 53838  53.2171 239.1299 0001566  91.4172 268.7000 15.08852493 61112,6917.842,95.437,540.791,538.624,0.0
53838.0,STARLINK-4773,PAYLOAD,2023-10-22 06:02:23,15.0887663,0.0001608,53.2167,237.3458,93.7547,266.363,0.0011291,0.00017745,0.0,0 STARLINK-4773,1 53838U 22114W   23295.25166066  .00017745  00000-0  11291-2 0  9990,2 53838  53.2167 237.3458 0001608  93.7547 266.3630 15.08876630 61170,6917.768,95.435,540.746,538.521,0.0
53838.0,STARLINK-4773,PAYLOAD,2023-10-23 02:42:24,15.08840589,0.0001464,53.2161,233.4804,106.9174,253.1979,0.00031007,4.65e-05,0.0,0 STARLINK-4773,1 53838U 22114W   23296.11278869  .00004650  00000-0  31007-3 0  9990,2 53838  53.2161 233.4804 0001464 106.9174 253.1979 15.08840589 61308,6917.879,95.438,540.756,538.731,0.0
53838.0,STARLINK-4773,PAYLOAD,2023-10-24 02:33:12,15.08847426,0.0001562,53.2168,229.021,108.0564,252.0598,0.00081927,0.00012777,0.0,0 STARLINK-4773,1 53838U 22114W   23297.10639427  .00012777  00000-0  81927-3 0  9996,2 53838  53.2168 229.0210 0001562 108.0564 252.0598 15.08847426 61450,6917.858,95.437,540.803,538.642,0.0
53838.0,STARLINK-4773,PAYLOAD,2023-10-24 12:05:31,15.08846675,0.0001484,53.2167,227.2349,101.7676,258.3483,0.00043526,6.647e-05,0.0,0 STARLINK-4773,1 53838U 22114W   23297.50383331  .00006647  00000-0  43526-3 0  9992,2 53838  53.2167 227.2349 0001484 101.7676 258.3483 15.08846675 62053,6917.86,95.437,540.752,538.698,0.0
53838.0,STARLINK-4773,PAYLOAD,2023-10-25 03:59:22,15.08846976,0.0001721,53.218,224.2655,109.2334,250.8844,0.00035848,5.423e-05,0.0,0 STARLINK-4773,1 53838U 22114W   23298.16623466  .00005423  00000-0  35848-3 0  9990,2 53838  53.2180 224.2655 0001721 109.2334 250.8844 15.08846976 61616,6917.859,95.437,540.915,538.534,0.0
53838.0,STARLINK-4773,PAYLOAD,2023-10-26 03:50:09,15.08848947,0.0001531,53.2172,219.8035,104.2202,255.8961,0.00031999,4.81e-05,0.0,0 STARLINK-4773,1 53838U 22114W   23299.15983407  .00004810  00000-0  31999-3 0  9996,2 53838  53.2172 219.8035 0001531 104.2202 255.8961 15.08848947 61768,6917.853,95.437,540.777,538.659,0.0
53838.0,STARLINK-4773,PAYLOAD,2023-10-26 05:25:32,15.08851325,0.0001553,53.217,219.5063,102.0072,258.1094,0.00038342,5.821e-05,0.0,0 STARLINK-4773,1 53838U 22114W   23299.22607360  .00005821  00000-0  38342-3 0  9997,2 53838  53.2170 219.5063 0001553 102.0072 258.1094 15.08851325 62318,6917.846,95.437,540.785,538.636,0.0
53838.0,STARLINK-4773,PAYLOAD,2023-10-26 22:54:46,15.08851329,0.000151,53.2166,216.2347,102.9466,257.1694,0.0002824,4.211e-05,0.0,0 STARLINK-4773,1 53838U 22114W   23299.95471062  .00004211  00000-0  28240-3 0  9993,2 53838  53.2166 216.2347 0001510 102.9466 257.1694 15.08851329 62422,6917.846,95.437,540.755,538.666,0.0
53838.0,STARLINK-4773,PAYLOAD,2023-10-27 11:37:52,15.08841753,0.0001887,53.2167,213.8553,85.8413,274.2794,-6.8291e-06,-3.97e-06,0.0,0 STARLINK-4773,1 53838U 22114W   23300.48463228 -.00000397  00000-0 -68291-5 0  9994,2 53838  53.2167 213.8553 0001887  85.8413 274.2794 15.08841753 61962,6917.875,95.437,541.045,538.435,0.0
53838.0,STARLINK-4773,PAYLOAD,2023-10-28 00:20:57,15.08834251,0.0001414,53.2156,211.4764,84.6831,275.4323,-6.3776e-05,-1.303e-05,0.0,0 STARLINK-4773,1 53838U 22114W   23301.01455488 -.00001303  00000-0 -63776-4 0  9993,2 53838  53.2156 211.4764 0001414  84.6831 275.4323 15.08834251 62041,6917.898,95.438,540.741,538.785,0.0
53838.0,STARLINK-4773,PAYLOAD,2023-10-28 01:56:20,15.08839214,0.0001409,53.2164,211.1789,89.092,271.0233,4.6089e-05,4.46e-06,0.0,0 STARLINK-4773,1 53838U 22114W   23301.08079389  .00000446  00000-0  46089-4 0  9995,2 53838  53.2164 211.1789 0001409  89.0920 271.0233 15.08839214 62592,6917.883,95.438,540.723,538.773,0.0
53838.0,STARLINK-4773,PAYLOAD,2023-10-28 22:36:21,15.0884166,0.0001502,53.2172,207.3124,94.1414,265.975,0.00053399,8.221e-05,0.0,0 STARLINK-4773,1 53838U 22114W   23301.94191825  .00008221  00000-0  53399-3 0  9990,2 53838  53.2172 207.3124 0001502  94.1414 265.9750 15.08841660 62729,6917.875,95.437,540.779,538.701,0.0
53838.0,STARLINK-4773,PAYLOAD,2023-10-29 11:19:26,15.08846933,0.000162,53.2174,204.9331,96.4771,263.6406,0.00039589,6.019e-05,0.0,0 STARLINK-4773,1 53838U 22114W   23302.47183662  .00006019  00000-0  39589-3 0  9997,2 53838  53.2174 204.9331 0001620  96.4771 263.6406 15.08846933 62266,6917.859,95.437,540.845,538.604,0.0
